start=new Date('2022-09-28T00:00:00.000Z').valueOf();
sats=[{"REV_AT_EPOCH":"14524","APOAPSIS":"548.622","SEMIMAJOR_AXIS":"6925.363","INCLINATION":"53.0560","RCS_SIZE":"LARGE","FILE":"3585092","LAUNCH_DATE":"2020-02-17","CLASSIFICATION_TYPE":"U","OBJECT_ID":"2020-012AP","EPHEMERIS_TYPE":"0","ARG_OF_PERICENTER":"50.3285","OBJECT_TYPE":"PAYLOAD","TIME_SYSTEM":"UTC","OBJECT_NAME":"STARLINK-1245","DECAY_DATE":null,"MEAN_ELEMENT_THEORY":"SGP4","PERIOD":"95.592","MEAN_MOTION_DOT":"0.00000288","BSTAR":"0.00003824300000","ELEMENT_SET_NO":"999","MEAN_ANOMALY":"309.7881","CENTER_NAME":"EARTH","REF_FRAME":"TEME","MEAN_MOTION":"15.06395448","COUNTRY_CODE":"US","EPOCH":"2022-09-27T08:21:50.054400","GP_ID":"213634076","SITE":"AFETR","NORAD_CAT_ID":"45215","ECCENTRICITY":"0.00020140","RA_OF_ASC_NODE":"280.0268","MEAN_MOTION_DDOT":"0.0000000000000","PERIAPSIS":"545.833","TLE_LINE2":"2 45215  53.0560 280.0268 0002014  50.3285 309.7881 15.06395448145241","TLE_LINE1":"1 45215U 20012AP  22270.34849600  .00000288  00000-0  38243-4 0  9991"},{"EPHEMERIS_TYPE":"0","OBJECT_ID":"2020-012AR","OBJECT_NAME":"STARLINK-1271","OBJECT_TYPE":"PAYLOAD","TIME_SYSTEM":"UTC","ARG_OF_PERICENTER":"74.0297","DECAY_DATE":null,"MEAN_ELEMENT_THEORY":"SGP4","INCLINATION":"53.0530","RCS_SIZE":"LARGE","APOAPSIS":"548.404","SEMIMAJOR_AXIS":"6925.337","REV_AT_EPOCH":"14536","FILE":"3585280","LAUNCH_DATE":"2020-02-17","CLASSIFICATION_TYPE":"U","SITE":"AFETR","GP_ID":"213663472","EPOCH":"2022-09-27T17:17:55.399776","NORAD_CAT_ID":"45217","MEAN_MOTION_DDOT":"0.0000000000000","PERIAPSIS":"545.999","RA_OF_ASC_NODE":"278.3626","ECCENTRICITY":"0.00017360","TLE_LINE1":"1 45217U 20012AR  22270.72078009  .00000816  00000-0  73683-4 0  9996","TLE_LINE2":"2 45217  53.0530 278.3626 0001736  74.0297 286.0883 15.06403933145365","BSTAR":"0.00007368300000","MEAN_MOTION_DOT":"0.00000816","PERIOD":"95.592","REF_FRAME":"TEME","MEAN_ANOMALY":"286.0883","CENTER_NAME":"EARTH","ELEMENT_SET_NO":"999","MEAN_MOTION":"15.06403933","COUNTRY_CODE":"US"},{"EPHEMERIS_TYPE":"0","OBJECT_ID":"2020-012AT","OBJECT_NAME":"STARLINK-1187","ARG_OF_PERICENTER":"77.9289","OBJECT_TYPE":"PAYLOAD","TIME_SYSTEM":"UTC","MEAN_ELEMENT_THEORY":"SGP4","DECAY_DATE":null,"RCS_SIZE":"LARGE","INCLINATION":"53.0520","REV_AT_EPOCH":"14557","SEMIMAJOR_AXIS":"6925.326","APOAPSIS":"548.176","FILE":"3585092","LAUNCH_DATE":"2020-02-17","CLASSIFICATION_TYPE":"U","GP_ID":"213633575","EPOCH":"2022-09-27T04:30:56.565216","SITE":"AFETR","NORAD_CAT_ID":"45219","PERIAPSIS":"546.206","MEAN_MOTION_DDOT":"0.0000000000000","ECCENTRICITY":"0.00014220","RA_OF_ASC_NODE":"260.7481","TLE_LINE1":"1 45219U 20012AT  22270.18815469  .00003383  00000-0  24582-3 0  9992","TLE_LINE2":"2 45219  53.0520 260.7481 0001422  77.9289 282.1859 15.06407311145572","PERIOD":"95.592","BSTAR":"0.00024582000000","MEAN_MOTION_DOT":"0.00003383","CENTER_NAME":"EARTH","MEAN_ANOMALY":"282.1859","REF_FRAME":"TEME","ELEMENT_SET_NO":"999","MEAN_MOTION":"15.06407311","COUNTRY_CODE":"US"},{"COUNTRY_CODE":"US","MEAN_MOTION":"15.06410733","ELEMENT_SET_NO":"999","REF_FRAME":"TEME","MEAN_ANOMALY":"263.4199","CENTER_NAME":"EARTH","MEAN_MOTION_DOT":"-0.00000203","BSTAR":"0.00000525610000","PERIOD":"95.591","TLE_LINE2":"2 45221  53.0539 260.7322 0001295  96.6937 263.4199 15.06410733145565","TLE_LINE1":"1 45221U 20012AV  22270.19184767 -.00000203  00000-0  52561-5 0  9995","RA_OF_ASC_NODE":"260.7322","ECCENTRICITY":"0.00012950","MEAN_MOTION_DDOT":"0.0000000000000","PERIAPSIS":"546.284","NORAD_CAT_ID":"45221","SITE":"AFETR","GP_ID":"213633824","EPOCH":"2022-09-27T04:36:15.638688","CLASSIFICATION_TYPE":"U","LAUNCH_DATE":"2020-02-17","FILE":"3585092","SEMIMAJOR_AXIS":"6925.316","APOAPSIS":"548.077","REV_AT_EPOCH":"14556","RCS_SIZE":"LARGE","INCLINATION":"53.0539","DECAY_DATE":null,"MEAN_ELEMENT_THEORY":"SGP4","TIME_SYSTEM":"UTC","OBJECT_TYPE":"PAYLOAD","ARG_OF_PERICENTER":"96.6937","OBJECT_NAME":"STARLINK-1189","EPHEMERIS_TYPE":"0","OBJECT_ID":"2020-012AV"},{"TIME_SYSTEM":"UTC","OBJECT_TYPE":"PAYLOAD","ARG_OF_PERICENTER":"65.0634","OBJECT_NAME":"STARLINK-1191","EPHEMERIS_TYPE":"0","OBJECT_ID":"2020-012AW","DECAY_DATE":null,"MEAN_ELEMENT_THEORY":"SGP4","FILE":"3585280","APOAPSIS":"548.251","SEMIMAJOR_AXIS":"6925.349","REV_AT_EPOCH":"14563","RCS_SIZE":"LARGE","INCLINATION":"53.0563","CLASSIFICATION_TYPE":"U","LAUNCH_DATE":"2020-02-17","NORAD_CAT_ID":"45222","SITE":"AFETR","EPOCH":"2022-09-27T15:55:38.339616","GP_ID":"213663222","TLE_LINE2":"2 45222  53.0563 258.6027 0001498  65.0634 295.0511 15.06399973145639","TLE_LINE1":"1 45222U 20012AW  22270.66363819  .00000601  00000-0  59232-4 0  9997","RA_OF_ASC_NODE":"258.6027","ECCENTRICITY":"0.00014980","MEAN_MOTION_DDOT":"0.0000000000000","PERIAPSIS":"546.176","ELEMENT_SET_NO":"999","REF_FRAME":"TEME","CENTER_NAME":"EARTH","MEAN_ANOMALY":"295.0511","MEAN_MOTION_DOT":"0.00000601","BSTAR":"0.00005923200000","PERIOD":"95.592","COUNTRY_CODE":"US","MEAN_MOTION":"15.06399973"},{"MEAN_MOTION":"15.06397258","COUNTRY_CODE":"US","BSTAR":"0.00010458000000","MEAN_MOTION_DOT":"0.00001276","PERIOD":"95.592","REF_FRAME":"TEME","CENTER_NAME":"EARTH","MEAN_ANOMALY":"286.6139","ELEMENT_SET_NO":"999","PERIAPSIS":"546.228","MEAN_MOTION_DDOT":"0.0000000000000","RA_OF_ASC_NODE":"259.9839","ECCENTRICITY":"0.00014350","TLE_LINE1":"1 45223U 20012AX  22270.35307763  .00001276  00000-0  10458-3 0  9995","TLE_LINE2":"2 45223  53.0532 259.9839 0001435  73.5007 286.6139 15.06397258145591","SITE":"AFETR","EPOCH":"2022-09-27T08:28:25.907232","GP_ID":"213634327","NORAD_CAT_ID":"45223","LAUNCH_DATE":"2020-02-17","CLASSIFICATION_TYPE":"U","RCS_SIZE":"LARGE","INCLINATION":"53.0532","SEMIMAJOR_AXIS":"6925.357","APOAPSIS":"548.216","REV_AT_EPOCH":"14559","FILE":"3585092","DECAY_DATE":null,"MEAN_ELEMENT_THEORY":"SGP4","EPHEMERIS_TYPE":"0","OBJECT_ID":"2020-012AX","OBJECT_NAME":"STARLINK-1212","OBJECT_TYPE":"PAYLOAD","TIME_SYSTEM":"UTC","ARG_OF_PERICENTER":"73.5007"},{"COUNTRY_CODE":"US","MEAN_MOTION":"15.06407764","ELEMENT_SET_NO":"999","REF_FRAME":"TEME","MEAN_ANOMALY":"289.8463","CENTER_NAME":"EARTH","BSTAR":"0.00047701000000","MEAN_MOTION_DOT":"0.00006832","PERIOD":"95.592","TLE_LINE2":"2 45225  53.0538 257.8239 0001747  70.2714 289.8463 15.06407764145617","TLE_LINE1":"1 45225U 20012AZ  22270.83688232  .00006832  00000-0  47701-3 0  9997","ECCENTRICITY":"0.00017470","RA_OF_ASC_NODE":"257.8239","PERIAPSIS":"545.980","MEAN_MOTION_DDOT":"0.0000000000000","NORAD_CAT_ID":"45225","SITE":"AFETR","GP_ID":"213664223","EPOCH":"2022-09-27T20:05:06.632448","CLASSIFICATION_TYPE":"U","LAUNCH_DATE":"2020-02-17","FILE":"3585280","SEMIMAJOR_AXIS":"6925.325","APOAPSIS":"548.400","REV_AT_EPOCH":"14561","INCLINATION":"53.0538","RCS_SIZE":"LARGE","DECAY_DATE":null,"MEAN_ELEMENT_THEORY":"SGP4","OBJECT_TYPE":"PAYLOAD","TIME_SYSTEM":"UTC","ARG_OF_PERICENTER":"70.2714","OBJECT_NAME":"STARLINK-1215","EPHEMERIS_TYPE":"0","OBJECT_ID":"2020-012AZ"},{"MEAN_MOTION":"15.06401310","COUNTRY_CODE":"US","MEAN_MOTION_DOT":"0.00002108","BSTAR":"0.00016039000000","PERIOD":"95.592","REF_FRAME":"TEME","CENTER_NAME":"EARTH","MEAN_ANOMALY":"270.3169","ELEMENT_SET_NO":"999","PERIAPSIS":"546.295","MEAN_MOTION_DDOT":"0.0000000000000","RA_OF_ASC_NODE":"258.1011","ECCENTRICITY":"0.00013210","TLE_LINE1":"1 45226U 20012BA  22270.77790449  .00002108  00000-0  16039-3 0  9997","TLE_LINE2":"2 45226  53.0546 258.1011 0001321  89.7971 270.3169 15.06401310145560","SITE":"AFETR","EPOCH":"2022-09-27T18:40:10.947936","GP_ID":"213664467","NORAD_CAT_ID":"45226","LAUNCH_DATE":"2020-02-17","CLASSIFICATION_TYPE":"U","RCS_SIZE":"LARGE","INCLINATION":"53.0546","APOAPSIS":"548.124","SEMIMAJOR_AXIS":"6925.345","REV_AT_EPOCH":"14556","FILE":"3585280","MEAN_ELEMENT_THEORY":"SGP4","DECAY_DATE":null,"EPHEMERIS_TYPE":"0","OBJECT_ID":"2020-012BA","OBJECT_NAME":"STARLINK-1217","OBJECT_TYPE":"PAYLOAD","TIME_SYSTEM":"UTC","ARG_OF_PERICENTER":"89.7971"},{"CLASSIFICATION_TYPE":"U","LAUNCH_DATE":"2020-02-17","FILE":"3585092","RCS_SIZE":"LARGE","INCLINATION":"53.0570","APOAPSIS":"548.260","SEMIMAJOR_AXIS":"6925.345","REV_AT_EPOCH":"14549","MEAN_ELEMENT_THEORY":"SGP4","DECAY_DATE":null,"OBJECT_NAME":"STARLINK-1221","TIME_SYSTEM":"UTC","OBJECT_TYPE":"PAYLOAD","ARG_OF_PERICENTER":"79.2416","EPHEMERIS_TYPE":"0","OBJECT_ID":"2020-012BB","COUNTRY_CODE":"US","MEAN_MOTION":"15.06401022","REF_FRAME":"TEME","MEAN_ANOMALY":"280.8743","CENTER_NAME":"EARTH","ELEMENT_SET_NO":"999","MEAN_MOTION_DOT":"-0.00000025","BSTAR":"0.00001719600000","PERIOD":"95.592","TLE_LINE1":"1 45227U 20012BB  22270.26924991 -.00000025  00000-0  17196-4 0  9996","TLE_LINE2":"2 45227  53.0570 260.3846 0001516  79.2416 280.8743 15.06401022145499","MEAN_MOTION_DDOT":"0.0000000000000","PERIAPSIS":"546.161","ECCENTRICITY":"0.00015160","RA_OF_ASC_NODE":"260.3846","NORAD_CAT_ID":"45227","SITE":"AFETR","GP_ID":"213634077","EPOCH":"2022-09-27T06:27:43.192224"},{"NORAD_CAT_ID":"45228","GP_ID":"213634826","EPOCH":"2022-09-27T03:21:57.258720","SITE":"AFETR","TLE_LINE2":"2 45228  53.0559 260.9606 0001646  67.8324 292.2840 15.06392289145446","TLE_LINE1":"1 45228U 20012BC  22270.14024605 -.00000718  00000-0 -29329-4 0  9998","RA_OF_ASC_NODE":"260.9606","ECCENTRICITY":"0.00016460","PERIAPSIS":"546.097","MEAN_MOTION_DDOT":"0.0000000000000","ELEMENT_SET_NO":"999","MEAN_ANOMALY":"292.2840","CENTER_NAME":"EARTH","REF_FRAME":"TEME","PERIOD":"95.593","MEAN_MOTION_DOT":"-0.00000718","BSTAR":"-0.00002932900000","COUNTRY_CODE":"US","MEAN_MOTION":"15.06392289","ARG_OF_PERICENTER":"67.8324","OBJECT_TYPE":"PAYLOAD","TIME_SYSTEM":"UTC","OBJECT_NAME":"STARLINK-1222","EPHEMERIS_TYPE":"0","OBJECT_ID":"2020-012BC","DECAY_DATE":null,"MEAN_ELEMENT_THEORY":"SGP4","FILE":"3585092","REV_AT_EPOCH":"14544","SEMIMAJOR_AXIS":"6925.372","APOAPSIS":"548.377","RCS_SIZE":"LARGE","INCLINATION":"53.0559","CLASSIFICATION_TYPE":"U","LAUNCH_DATE":"2020-02-17"}];
